[Satellite]
VERSION=1.1
NAME=SL-3 R/B
NICKNAME=SL-3 R/B
TLE1=1 12465U 81046B   19316.91298156  .00000223  00000-0  10587-4 0  9990
TLE2=2 12465  81.2424  94.4513 0033165 263.2605  96.4849 15.14503905 87355
STATUS=0
